ONEWEB-0055             
1 45443U 20020V   21082.95105289  .00000510  00000-0  14024-2 0  9995
2 45443  87.8919  40.9773 0001898  78.4705 281.6636 13.11417883 52119
ONEWEB-0093             
1 45444U 20020W   21082.83582564 -.00000463  00000-0 -13435-2 0  9992
2 45444  87.8910  41.0581 0002053  86.9466 273.1897 13.11417878 52166
ONEWEB-0029             
1 45445U 20020X   21082.94949588  .00000572  00000-0  15791-2 0  9994
2 45445  87.8911  41.0175 0001856  81.6507 278.4831 13.11415539 52152
ONEWEB-0068             
1 45446U 20020Y   21082.90588831 -.00000419  00000-0 -12183-2 0  9995
2 45446  87.8910  41.0439 0002516  73.2598 286.8805 13.11416205 52094
ONEWEB-0046             
1 45447U 20020Z   21082.90275767 -.00000374  00000-0 -10898-2 0  9998
2 45447  87.8911  41.0481 0002155  85.2909 274.8465 13.11417132 52102
ONEWEB-0063             
1 45448U 20020AA  21082.94638811  .00000574  00000-0  15840-2 0  9998
2 45448  87.8903  41.0560 0002538  88.3322 271.8096 13.11416190 52199
ONEWEB-0019             
1 45449U 20020AB  21082.83116130 -.00000486  00000-0 -14079-2 0  9999
2 45449  87.8914  41.0335 0001851  81.9521 278.1817 13.11415264 52023
ONEWEB-0094             
1 45450U 20020AC  21082.90351261  .00000061  00000-0  51908-4 0  9996
2 45450  87.8662  26.1220 0028654  69.7052 290.7185 13.69913919 54501
ONEWEB-0087             
1 45451U 20020AD  21082.95262144  .00000541  00000-0  14908-2 0  9993
2 45451  87.8915  41.0375 0001858  82.0731 278.0608 13.11416414 52084
ONEWEB-0082             
1 45452U 20020AE  21082.95416861  .00000472  00000-0  12947-2 0  9995
2 45452  87.8908  41.0048 0002081  76.0983 284.0376 13.11416551 52176
ONEWEB-0050             
1 45453U 20020AF  21082.87370306  .00000531  00000-0  45680-4 0  9998
2 45453  87.5471  22.4311 0028220  52.0834 308.2942 14.94896768 54968
ONEWEB-0034             
1 45454U 20020AG  21082.89031425 -.00000085  00000-0 -27606-3 0  9990
2 45454  87.8907  41.0414 0002175  86.3548 273.7828 13.11415576 52082
ONEWEB-0060             
1 45455U 20020AH  21082.89654201 -.00000379  00000-0 -11063-2 0  9999
2 45455  87.8912  41.0326 0002068  83.8212 276.3151 13.11415684 52046
ONEWEB-0086             
1 45456U 20020AJ  21082.83425656 -.00000454  00000-0 -13156-2 0  9993
2 45456  87.8910  41.0432 0002170  83.3283 276.8091 13.11409568 52097
ONEWEB-0088             
1 45457U 20020AK  21082.89188161 -.00000158  00000-0 -48168-3 0  9990
2 45457  87.8903  41.0661 0002157  85.2963 274.8411 13.11414817 52036
ONEWEB-0102             
1 47258U 20100A   21082.91667824  .00000014  00000-0  00000+0 0  9999
2 47258  87.8490  10.8607 0008773 329.3689  75.6254 13.54626361 13955
ONEWEB-0109             
1 47259U 20100B   21082.91667824  .00000014  00000-0  00000+0 0  9990
2 47259  87.8367  10.6936 0009397 328.8842  71.9789 13.41613309 13811
ONEWEB-0110             
1 47260U 20100C   21082.91667824  .00000015  00000-0  00000+0 0  9993
2 47260  87.8508  10.7640 0008334 331.1275 148.4204 13.64308386 13958
ONEWEB-0111             
1 47261U 20100D   21082.91667824  .00000014  00000-0  00000+0 0  9993
2 47261  87.8942  10.6524 0009819 332.5317 252.8868 13.40035845 13814
ONEWEB-0114             
1 47262U 20100E   21082.91667824  .00000014  00000-0  00000+0 0  9994
2 47262  87.8969  10.6219 0010032 313.8925 185.2753 13.37909478 13787
ONEWEB-0117             
1 47263U 20100F   21082.91667824  .00000013  00000-0  00000+0 0  9994
2 47263  87.8988  10.6801 0009607 339.4098 335.1710 13.34704974 13798
ONEWEB-0118             
1 47264U 20100G   21082.91667824  .00000014  00000-0  00000+0 0  9996
2 47264  87.7870  10.7962 0010810 317.3708 299.5725 13.54583953 13971
ONEWEB-0119             
1 47265U 20100H   21082.91667824  .00000014  00000-0  00000+0 0  9997
2 47265  87.8436  10.8078 0013181 319.0005 100.5902 13.53368897 13934
ONEWEB-0120             
1 47266U 20100J   21082.91667824  .00000015  00000-0  00000+0 0  9999
2 47266  87.7852  10.7319 0009609 333.1556  15.8969 13.59813097 13957
ONEWEB-0121             
1 47267U 20100K   21082.91667824  .00000014  00000-0  00000+0 0  9999
2 47267  87.7933  10.4860 0012240 335.2103 172.7766 13.56536778 13843
ONEWEB-0122             
1 47268U 20100L   21082.91667824  .00000014  00000-0  00000+0 0  9990
2 47268  87.9128  10.6665 0008360 328.0357 306.6997 13.44126388 13805
ONEWEB-0123             
1 47269U 20100M   21082.91667824  .00000014  00000-0  00000+0 0  9991
2 47269  87.8324  10.7853 0007831 328.1031 188.9377 13.54576412 13930
ONEWEB-0124             
1 47270U 20100N   21082.91667824  .00000014  00000-0  00000+0 0  9993
2 47270  87.8528  10.7004 0009037 317.5906 207.8505 13.39373138 13824
ONEWEB-0125             
1 47271U 20100P   21082.91667824  .00000014  00000-0  00000+0 0  9994
2 47271  87.8430  10.7218 0009497 317.7720  89.1427 13.48744277 13864
ONEWEB-0126             
1 47272U 20100Q   21082.91667824  .00000014  00000-0  00000+0 0  9995
2 47272  87.8323  10.8555 0007639 311.5644 108.8190 13.56764236 13934
ONEWEB-0127             
1 47273U 20100R   21082.91667824  .00000014  00000-0  00000+0 0  9996
2 47273  87.7892  10.7833 0010682 322.3645  63.8599 13.51214814 13969
ONEWEB-0128             
1 47274U 20100S   21082.91667824  .00000014  00000-0  00000+0 0  9997
2 47274  87.7755  10.7928 0010563 293.2836 133.9040 13.54365380 13978
ONEWEB-0129             
1 47275U 20100T   21082.91667824  .00000015  00000-0  00000+0 0  9999
2 47275  87.7895  10.6418 0010970 334.5184 197.0439 13.61670705 13908
ONEWEB-0130             
1 47276U 20100U   21082.91667824 -.00047331  00000-0 -75692-1 0  9995
2 47276  87.7646  10.7560 0007570 314.3079  86.5377 13.49342708 13899
ONEWEB-0131             
1 47277U 20100V   21082.91667824  .00000014  00000-0  00000+0 0  9990
2 47277  87.7620  10.7333 0007620 321.3127 134.9800 13.55575646 13927
ONEWEB-0132             
1 47278U 20100W   21082.91667824  .00000014  00000-0  00000+0 0  9991
2 47278  87.8836  10.7399 0008666 335.2379 307.9219 13.42026977 13834
ONEWEB-0133             
1 47279U 20100X   21082.91667824  .00000014  00000-0  00000+0 0  9992
2 47279  87.7785  10.8104 0010801 315.7396 299.0578 13.54987179 13964
ONEWEB-0134             
1 47280U 20100Y   21082.91667824  .00000014  00000-0  00000+0 0  9994
2 47280  87.7933  10.7728 0011794 328.5039   4.0230 13.51440294 13946
ONEWEB-0135             
1 47281U 20100Z   21082.91667824  .00000014  00000-0  00000+0 0  9995
2 47281  87.7916  10.8021 0011889 300.8453 120.1022 13.58673529 13971
ONEWEB-0136             
1 47282U 20100AA  21082.91667824  .00000014  00000-0  00000+0 0  9996
2 47282  87.7772  10.6983 0007812 316.6323  13.4111 13.53300735 13906
ONEWEB-0137             
1 47283U 20100AB  21082.91667824  .00000014  00000-0  00000+0 0  9997
2 47283  87.8976  10.7845 0011247 314.3004 143.3128 13.39065331 13815
ONEWEB-0138             
1 47284U 20100AC  21082.91667824  .00000015  00000-0  00000+0 0  9999
2 47284  87.9605  10.6393 0011103 327.9977  37.2565 13.65998313 13868
ONEWEB-0139             
1 47285U 20100AD  21082.91667824  .00000014  00000-0  00000+0 0  9999
2 47285  87.7928  10.8046 0009753 299.2688  36.5796 13.56663167 13965
ONEWEB-0140             
1 47286U 20100AE  21082.91667824  .00000014  00000-0  00000+0 0  9990
2 47286  87.8181  10.7674 0009485 334.9711 100.9222 13.53875784 13923
ONEWEB-0141             
1 47287U 20100AF  21082.91667824  .00000014  00000-0  00000+0 0  9991
2 47287  87.8524  10.8017 0010593 314.4266 271.0442 13.57042231 13928
ONEWEB-0142             
1 47288U 20100AG  21082.91667824  .00000014  00000-0  00000+0 0  9992
2 47288  87.8372  10.8247 0007204 318.7377 137.6126 13.52252212 13912
ONEWEB-0143             
1 47289U 20100AH  21082.91667824  .00000015  00000-0  00000+0 0  9994
2 47289  87.7998  10.6116 0012338 332.3410 184.9542 13.60004377 13860
ONEWEB-0144             
1 47290U 20100AJ  21082.91667824  .00000014  00000-0  00000+0 0  9995
2 47290  87.8158  10.7049 0009116 339.2047 161.4999 13.40335620 13827
ONEWEB-0145             
1 47291U 20100AK  21082.91667824  .00000014  00000-0  00000+0 0  9996
2 47291  87.7989  10.7936 0011289 294.5325 290.7571 13.57984345 14005
ONEWEB-0146             
1 47292U 20100AL  21082.91667824  .00000014  00000-0  00000+0 0  9997
2 47292  87.8449  10.7926 0012513 319.7445 156.4876 13.55940498 13904
ONEWEB-0147             
1 47293U 20100AM  21082.91667824  .00000014  00000-0  00000+0 0  9998
2 47293  87.8522  10.7075 0009992 315.8850 338.7715 13.39136383 13826
